ONEWEB-0707             
1 61612U 24188U   25296.66329368 -.00000530  00000+0 -15542-2 0  9994
2 61612  87.8777  83.3925 0002179  89.2863 270.8514 13.10370372 52345
ONEWEB-0708             
1 61613U 24188V   25296.45249152 -.00000311  00000+0 -92840-3 0  9998
2 61613  87.8771  83.4762 0001569  74.3892 285.7408 13.10368131 52290
